COMMENT,ORIGINATOR,NORAD_CAT_ID,OBJECT_NAME,OBJECT_TYPE,CLASSIFICATION_TYPE,INTLDES,EPOCH,EPOCH_MICROSECONDS,MEAN_MOTION,ECCENTRICITY,INCLINATION,RA_OF_ASC_NODE,ARG_OF_PERICENTER,MEAN_ANOMALY,EPHEMERIS_TYPE,ELEMENT_SET_NO,REV_AT_EPOCH,BSTAR,MEAN_MOTION_DOT,MEAN_MOTION_DDOT,FILE,TLE_LINE0,TLE_LINE1,TLE_LINE2,OBJECT_ID,OBJECT_NUMBER,SEMIMAJOR_AXIS,PERIOD,APOGEE,PERIGEE
"GENERATED VIA SPACETRACK.ORG API","JSPOC","25106","IRIDIUM 47","PAYLOAD","U","97082C","2016-01-12 18:43:12","335232","14.34217988","0.0001913","86.3982","113.3302","96.3476","263.7938","0","999","94563","0.0001143","3.4e-06","0","1979507","0 IRIDIUM 47","1 25106U 97082C   16012.78000388  .00000340  00000-0  11430-3 0  9993","2 25106  86.3982 113.3302 0001913  96.3476 263.7938 14.34217988945636","1997-082C","25106","7155.803","100.403","779.037","776.299"
"GENERATED VIA SPACETRACK.ORG API","JSPOC","29648","MEASAT 3","PAYLOAD","U","06056A","2016-01-12 18:43:13","886112","1.00271894","6.21e-05","0.0473","210.8999","18.2427","254.8747","0","999","3337","0","-2.43e-06","0","1979613","0 MEASAT 3","1 29648U 06056A   16012.78002183 -.00000243  00000-0  00000+0 0  9994","2 29648   0.0473 210.8999 0000621  18.2427 254.8747  1.00271894 33371","2006-056A","29648","42164.701","1436.095","35789.184","35783.947"
"GENERATED VIA SPACETRACK.ORG API","JSPOC","18312","METEOR 2-16","PAYLOAD","U","87068A","2016-01-12 18:43:18","275232","13.84702002","0.0011178","82.5562","78.7071","307.0778","192.2912","0","999","43522","6.0408e-05","8.3e-07","0","1979855","0 METEOR 2-16","1 18312U 87068A   16012.78007263 +.00000083 +00000-0 +60408-4 0  9990","2 18312 082.5562 078.7071 0011178 307.0778 192.2912 13.84702002435224","1987-068A","18312","7325.393","103.993","955.446","939.070"
"GENERATED VIA SPACETRACK.ORG API","JSPOC","2120","SCOUT A R/B","ROCKET BODY","U","66024B","2016-01-12 18:43:22","183104","13.7195361","0.0151966","89.7168","258.3503","129.9886","231.4735","0","999","49012","6.6688e-05","7.8e-07","0","1979621","0 SCOUT A R/B","1 02120U 66024B   16012.78011786  .00000078  00000-0  66688-4 0  9994","2 02120  89.7168 258.3503 0151966 129.9886 231.4735 13.71953610490120","1966-024B","2120","7370.702","104.959","1104.577","880.558"
"GENERATED VIA SPACETRACK.ORG API","JSPOC","27714","INSAT 3A","PAYLOAD","U","03013A","2016-01-12 18:43:26","897088","1.00269858","0.0001301","0.0482","236.1939","190.0862","59.8028","0","999","4676","0","-2.59e-06","0","1979514","0 INSAT 3A","1 27714U 03013A   16012.78017242 -.00000259  00000-0  00000+0 0  9995","2 27714   0.0482 236.1939 0001301 190.0862  59.8028  1.00269858 46765","2003-013A","27714","42165.272","1436.124","35792.622","35781.651"
"GENERATED VIA SPACETRACK.ORG API","JSPOC","30793","INSAT 4B","PAYLOAD","U","07007A","2016-01-12 18:43:26","897088","1.00269395","0.0008149","0.1145","89.4622","190.7827","205.8199","0","999","3239","0","-2.59e-06","0","1979514","0 INSAT 4B","1 30793U 07007A   16012.78017242 -.00000259  00000-0  00000+0 0  9993","2 30793   0.1145  89.4622 0008149 190.7827 205.8199  1.00269395 32398","2007-007A","30793","42165.401","1436.131","35821.627","35752.906"
"GENERATED VIA SPACETRACK.ORG API","JSPOC","41028","GSAT 15","PAYLOAD","U","15065A","2016-01-12 18:43:26","897088","1.0026986","0.0002163","0.0184","75.9445","208.7117","201.4028","0","999","68","0","-2.59e-06","0","1979855","0 GSAT 15","1 41028U 15065A   16012.78017242 -.00000259 +00000-0 +00000-0 0  9990","2 41028 000.0184 075.9445 0002163 208.7117 201.4028 01.00269860000685","2015-065A","41028","42165.271","1436.124","35796.256","35778.016"
"GENERATED VIA SPACETRACK.ORG API","JSPOC","7434","SL-8 R/B","ROCKET BODY","U","74071B","2016-01-12 18:43:30","367776","14.36530288","0.0019732","74.0477","91.4995","133.2099","227.0706","0","999","16156","5.4069e-05","1.33e-06","0","1979855","0 SL-8 R/B","1  7434U 74071B   16012.78021259 +.00000133 +00000-0 +54069-4 0  9996","2  7434 074.0477 091.4995 0019732 133.2099 227.0706 14.36530288161568","1974-071B","7434","7148.122","100.241","784.092","755.882"
"GENERATED VIA SPACETRACK.ORG API","JSPOC","40039","PERSEUS M1","PAYLOAD","U","14033AF","2016-01-12 18:43:36","71040","14.8552772","0.0013453","97.9435","277.207","203.5047","156.5572","0","999","8486","6.2767e-05","4.88e-06","0","1979597","0 PERSEUS M1","1 40039U 14033AF  16012.78027860  .00000488  00000-0  62767-4 0  9997","2 40039  97.9435 277.2070 0013453 203.5047 156.5572 14.85527720 84865","2014-033AF","40039","6990.066","96.935","621.335","602.528"
"GENERATED VIA SPACETRACK.ORG API","JSPOC","40039","PERSEUS M1","PAYLOAD","U","14033AF","2016-01-12 18:43:36","70176","14.8552772","0.0013453","97.9435","277.207","203.5047","156.5572","0","999","8486","6.2767e-05","4.88e-06","0","1979855","0 PERSEUS M1","1 40039U 14033AF  16012.78027859 +.00000488 +00000-0 +62767-4 0  9995","2 40039 097.9435 277.2070 0013453 203.5047 156.5572 14.85527720084865","2014-033AF","40039","6990.066","96.935","621.335","602.528"
"GENERATED VIA SPACETRACK.ORG API","JSPOC","39431","BRITE-PL","PAYLOAD","U","13066R","2016-01-12 18:43:54","64704","14.46642817","0.0201827","97.6827","32.0866","290.5194","67.4443","0","999","11286","8.6589e-05","3.53e-06","0","1979855","0 BRITE-PL","1 39431U 13066R   16012.78048686 +.00000353 +00000-0 +86589-4 0  9994","2 39431 097.6827 032.0866 0201827 290.5194 067.4443 14.46642817112865","2013-066R","39431","7114.771","99.540","880.231","593.041"
"GENERATED VIA SPACETRACK.ORG API","JSPOC","27058","GONETS D1 7","PAYLOAD","U","01058D","2016-01-12 18:44:15","296640","12.62012869","0.0003152","82.536","124.9865","2.3532","357.7571","0","999","64689","8.6615e-06","1.2e-07","0","1979532","0 GONETS D1 7","1 27058U 01058D   16012.78073260  .00000012  00000-0  86615-5 0  9993","2 27058  82.5360 124.9865 0003152   2.3532 357.7571 12.62012869646894","2001-058D","27058","7792.784","114.103","1417.105","1412.192"
"GENERATED VIA SPACETRACK.ORG API","JSPOC","36598","PICARD","PAYLOAD","U","10028A","2016-01-12 18:44:16","723104","14.50404609","0.000226","98.3064","199.1399","113.8503","246.293","0","999","29517","4.178e-05","1.19e-06","0","1979566","0 PICARD","1 36598U 10028A   16012.78074911  .00000119  00000-0  41780-4 0  9994","2 36598  98.3064 199.1399 0002260 113.8503 246.2930 14.50404609295178","2010-028A","36598","7102.464","99.282","725.934","722.724"
"GENERATED VIA SPACETRACK.ORG API","JSPOC","17526","SL-8 R/B","ROCKET BODY","U","87017B","2016-01-12 18:44:25","575648","13.767777","0.0039642","82.9022","69.8495","336.7181","161.3255","0","999","43434","9.4146e-05","1.08e-06","0","1979855","0 SL-8 R/B","1 17526U 87017B   16012.78085157 +.00000108 +00000-0 +94146-4 0  9992","2 17526 082.9022 069.8495 0039642 336.7181 161.3255 13.76777700434346","1987-017B","17526","7353.475","104.592","1004.490","946.189"
"GENERATED VIA SPACETRACK.ORG API","JSPOC","40697","SENTINEL 2A","PAYLOAD","U","15028A","2016-01-12 18:44:30","612768","14.30821484","0.0001148","98.5646","89.214","100.6757","259.4539","0","999","2913","3.6274e-05","5.1e-07","0","1979855","0 SENTINEL 2A","1 40697U 15028A   16012.78090987 +.00000051 +00000-0 +36274-4 0  9992","2 40697 098.5646 089.2140 0001148 100.6757 259.4539 14.30821484029137","2015-028A","40697","7167.123","100.641","789.811","788.165"
"GENERATED VIA SPACETRACK.ORG API","JSPOC","27374","IRIDIUM 94","PAYLOAD","U","02005C","2016-01-12 18:44:51","232128","14.34221633","0.0001529","86.3984","113.724","65.664","104.5987","0","999","74121","0.00011667","3.47e-06","0","1979509","0 IRIDIUM 94","1 27374U 02005C   16012.78114852  .00000347  00000-0  11667-3 0  9994","2 27374  86.3984 113.7240 0001529  65.6640 104.5987 14.34221633741213","2002-005C","27374","7155.791","100.402","778.750","776.562"
"GENERATED VIA SPACETRACK.ORG API","JSPOC","20791","CZ-4 R/B","ROCKET BODY","U","90081D","2016-01-12 18:45:01","727136","13.92595083","0.0053772","99.0358","66.0489","51.869","81.7702","0","999","28847","-4.0911e-05","-9.6e-07","0","1979855","0 CZ-4 R/B","1 20791U 90081D   16012.78126999 -.00000096 +00000-0 -40911-4 0  9994","2 20791 099.0358 066.0489 0053772 051.8690 081.7702 13.92595083288470","1990-081D","20791","7297.687","103.404","958.793","880.311"
"GENERATED VIA SPACETRACK.ORG API","JSPOC","12681","COSMOS 1295","PAYLOAD","U","81077A","2016-01-12 18:45:02","725920","13.76347248","0.0045361","82.918","78.6174","117.7569","21.3746","0","999","72832","4.0281e-05","5.5e-07","0","1979855","0 COSMOS 1295","1 12681U 81077A   16012.78128155 +.00000055 +00000-0 +40281-4 0  9997","2 12681 082.9180 078.6174 0045361 117.7569 021.3746 13.76347248728326","1981-077A","12681","7355.008","104.624","1010.236","943.510"
"GENERATED VIA SPACETRACK.ORG API","JSPOC","36396","ATLAS 5 CENTAUR R/B","ROCKET BODY","U","10005B","2016-01-12 18:45:05","557248","2.28848229","0.6384153","28.954","45.9666","135.8559","309.5727","0","999","4947","0","-6.9e-07","0","1979855","0 ATLAS 5 CENTAUR R/B","1 36396U 10005B   16012.78131432 -.00000069 +00000-0 +00000-0 0  9998","2 36396 028.9540 045.9666 6384153 135.8559 309.5727 02.28848229049471","2010-005B","36396","24324.101","629.237","33474.844","2417.087"
"GENERATED VIA SPACETRACK.ORG API","JSPOC","26702","ODIN","PAYLOAD","U","01007A","2016-01-12 18:45:13","871520","15.06062931","0.0012286","97.6331","29.1315","37.3231","322.8847","0","999","81253","0.00021603","3.096e-05","0","1979855","0 ODIN","1 26702U 01007A   16012.78141055 +.00003096 +00000-0 +21603-3 0  9999","2 26702 097.6331 029.1315 0012286 037.3231 322.8847 15.06062931812533","2001-007A","26702","6926.381","95.613","556.756","539.737"
